HTV-X1                  
1 66174U 25241A   26063.41494957  .00010377  00000+0  19994-3 0  9990
2 66174  51.6315  98.4344 0008199 155.9283 204.2090 15.48440114555430
SZ-21 MODULE            
1 66515U 25246C   26062.76916662  .00044751  00000+0  39281-3 0  9997
2 66515  41.4730 239.7930 0001447 287.9355  72.1329 15.68011820 17141
SHENZHOU-22             
1 66645U 25272A   26063.53175524  .00024935  00000+0  29808-3 0  9996
2 66645  41.4656 239.5395 0006880 242.0703 117.9439 15.60393731268357
SOYUZ-MS 28             
1 66664U 25275A   26063.41494957  .00010377  00000+0  19994-3 0  9991
2 66664  51.6315  98.4344 0008199 155.9283 204.2090 15.48440114555513
DUPLEX                  
1 66906U 98067XS  26063.38398991  .00042212  00000+0  60284-3 0  9997
2 66906  51.6284  95.9816 0002075  91.8511 268.2718 15.55826494 14303
ISS OBJECT XT           
1 66907U 98067XT  26063.29398340  .00188353  00000+0  16714-2 0  9991
2 66907  51.6246  93.1197 0004640  42.9722 317.1636 15.67417551 14334
ISS OBJECT XU           
1 66908U 98067XU  26063.29254612  .00190633  00000+0  16845-2 0  9994
2 66908  51.6245  93.1068 0004676  47.0078 313.1309 15.67514512 14338
SILVERSAT               
1 66909U 98067XV  26063.23925127  .00227913  00000+0  18132-2 0  9998
2 66909  51.6239  92.7506 0005490  43.4066 316.7363 15.69945816 14332
ISS OBJECT XW           
1 66910U 98067XW  26063.47820585  .00172698  00000+0  15623-2 0  9999
2 66910  51.6245  92.0913 0004931  56.6697 303.4771 15.66994396 14364
ISS OBJECT XX           
1 66911U 98067XX  26063.37318506  .00277959  00000+0  19668-2 0  9993
2 66911  51.6212  91.3792 0007057  50.5445 309.6177 15.72573007 14358
ISS OBJECT XY           
1 66912U 98067XY  26063.33915681  .00115523  00000+0  12563-2 0  9992
2 66912  51.6267  94.1780 0002913  59.3455 300.7826 15.62578178 14313
ISS OBJECT XZ           
1 67683U 98067XZ  26063.31738248  .00052289  00000+0  87421-3 0  9993
2 67683  51.6304  98.5346 0009491 167.7937 192.3284 15.51337660  3952
GXIBA-1                 
1 67684U 98067YA  26063.36223977  .00103687  00000+0  15928-2 0  9998
2 67684  51.6304  98.0837 0010966 158.3351 201.8106 15.53373762  3963
CORAL                   
1 67685U 98067YB  26063.31409248  .00057704  00000+0  95212-3 0  9994
2 67685  51.6305  98.5128 0011399 164.0725 196.0625 15.51642058  3958
ISS OBJECT YC           
1 67686U 98067YC  26063.31023200  .00070087  00000+0  11372-2 0  9998
2 67686  51.6308  98.4887 0007745 132.0357 228.1293 15.52065011  3956
LEOPARD                 
1 67687U 98067YD  26063.31561112  .00056781  00000+0  94368-3 0  9990
2 67687  51.6306  98.5236 0007781 136.2386 223.9221 15.51484974  3879
ISS OBJECT YE           
1 67688U 98067YE  26063.50513603  .00064836  00000+0  10599-2 0  9997
2 67688  51.6315  97.5383 0007786 134.7310 225.4314 15.51890022  3906
